{"type": "FeatureCollection", "features": [ {"type": "Feature", "properties": {"norad_id": 34761, "name": "COSMOS 2251 DEB", "group": "cosmos-2251-debris", "lat": -55.81444864100781, "lon": -7.101790844025342, "alt_km": 782.195985899014, "timestamp": "2025-12-04T13:52:00.836804+00:00", "meta": {"OBJECT_NAME": "COSMOS 2251 DEB", "OBJECT_ID": "1993-036AAF", "EPOCH": "2025-12-03T11:25:40.179072", "MEAN_MOTION": 14.37997313, "ECCENTRICITY": 0.00360917, "INCLINATION": 74.03, "RA_OF_ASC_NODE": 19.8628, "ARG_OF_PERICENTER": 56.9515, "MEAN_ANOMALY": 303.5096, "EPHEMERIS_TYPE": 0, "CLASSIFICATION_TYPE": "U", "NORAD_CAT_ID": 34761, "ELEMENT_SET_NO": 999, "REV_AT_EPOCH": 87516, "BSTAR": 0.00082876209, "MEAN_MOTION_DOT": 2.5e-05, "MEAN_MOTION_DDOT": 0}, "tle": {"line1": "1 34761U 93036AAF 25337.47615948  .00002500  00000+0  82876-3 0  9996", "line2": "2 34761  74.0300  19.8628 0036091  56.9515 303.5096 14.37997313875161"}}, "geometry": {"type": "Point", "coordinates": [-7.101790844025342, -55.81444864100781]}}, {"type": "Feature", "properties": {"norad_id": 34784, "name": "COSMOS 2251 DEB", "group": "cosmos-2251-debris", "lat": -43.435009175713816, "lon": 175.73556358699622, "alt_km": 687.2037461324226, "timestamp": "2025-12-04T13:52:00.836814+00:00", "meta": {"OBJECT_NAME": "COSMOS 2251 DEB", "OBJECT_ID": "1993-036AAM", "EPOCH": "2025-12-04T06:15:59.050368", "MEAN_MOTION": 14.60719821, "ECCENTRICITY": 0.00497309, "INCLINATION": 74.0074, "RA_OF_ASC_NODE": 340.5854, "ARG_OF_PERICENTER": 152.4273, "MEAN_ANOMALY": 207.9548, "EPHEMERIS_TYPE": 0, "CLASSIFICATION_TYPE": "U", "NORAD_CAT_ID": 34784, "ELEMENT_SET_NO": 999, "REV_AT_EPOCH": 88411, "BSTAR": 0.0009638318, "MEAN_MOTION_DOT": 4.754e-05, "MEAN_MOTION_DDOT": 0}, "tle": {"line1": "1 34784U 93036AAM 25338.26110012  .00004754  00000+0  96383-3 0  9992", "line2": "2 34784  74.0074 340.5854 0049730 152.4273 207.9548 14.60719821884112"}}, "geometry": {"type": "Point", "coordinates": [175.73556358699622, -43.435009175713816]}}, {"type": "Feature", "properties": {"norad_id": 34790, "name": "COSMOS 2251 DEB", "group": "cosmos-2251-debris", "lat": -26.5210537563677, "lon": -109.80048960380098, "alt_km": 744.0944768883382, "timestamp": "2025-12-04T13:52:00.836824+00:00", "meta": {"OBJECT_NAME": "COSMOS 2251 DEB", "OBJECT_ID": "1993-036AAT", "EPOCH": "2025-12-02T20:07:24.488832", "MEAN_MOTION": 14.2457003, "ECCENTRICITY": 0.01006839, "INCLINATION": 74.0549, "RA_OF_ASC_NODE": 261.5318, "ARG_OF_PERICENTER": 325.2539, "MEAN_ANOMALY": 90.5192, "EPHEMERIS_TYPE": 0, "CLASSIFICATION_TYPE": "U", "NORAD_CAT_ID": 34790, "ELEMENT_SET_NO": 999, "REV_AT_EPOCH": 86432, "BSTAR": 0.0013780227, "MEAN_MOTION_DOT": 3.347e-05, "MEAN_MOTION_DDOT": 0}, "tle": {"line1": "1 34790U 93036AAT 25336.83847788  .00003347  00000+0  13780-2 0  9993", "line2": "2 34790  74.0549 261.5318 0100683 325.2539  90.5192 14.24570030864322"}}, "geometry": {"type": "Point", "coordinates": [-109.80048960380098, -26.5210537563677]}}, {"type": "Feature", "properties": {"norad_id": 34792, "name": "COSMOS 2251 DEB", "group": "cosmos-2251-debris", "lat": 72.07509686338706, "lon": -112.42581424907489, "alt_km": 707.8586256458848, "timestamp": "2025-12-04T13:52:00.836834+00:00", "meta": {"OBJECT_NAME": "COSMOS 2251 DEB", "OBJECT_ID": "1993-036AAV", "EPOCH": "2025-12-03T18:16:07.387968", "MEAN_MOTION": 14.55837126, "ECCENTRICITY": 0.00125867, "INCLINATION": 74.0178, "RA_OF_ASC_NODE": 186.7474, "ARG_OF_PERICENTER": 280.4071, "MEAN_ANOMALY": 203.3349, "EPHEMERIS_TYPE": 0, "CLASSIFICATION_TYPE": "U", "NORAD_CAT_ID": 34792, "ELEMENT_SET_NO": 999, "REV_AT_EPOCH": 87519, "BSTAR": 0.001285145, "MEAN_MOTION_DOT": 5.617e-05, "MEAN_MOTION_DDOT": 0}, "tle": {"line1": "1 34792U 93036AAV 25337.76119662  .00005617  00000+0  12851-2 0  9991", "line2": "2 34792  74.0178 186.7474 0012586 280.4071 203.3349 14.55837126875191"}}, "geometry": {"type": "Point", "coordinates": [-112.42581424907489, 72.07509686338706]}}, {"type": "Feature", "properties": {"norad_id": 34793, "name": "COSMOS 2251 DEB", "group": "cosmos-2251-debris", "lat": 6.476390000750159, "lon": -92.68863094814753, "alt_km": 744.1478739203603, "timestamp": "2025-12-04T13:52:00.836844+00:00", "meta": {"OBJECT_NAME": "COSMOS 2251 DEB", "OBJECT_ID": "1993-036AAW", "EPOCH": "2025-12-04T06:03:19.496736", "MEAN_MOTION": 14.38622504, "ECCENTRICITY": 0.00499762, "INCLINATION": 74.0027, "RA_OF_ASC_NODE": 266.0462, "ARG_OF_PERICENTER": 62.4541, "MEAN_ANOMALY": 59.8767, "EPHEMERIS_TYPE": 0, "CLASSIFICATION_TYPE": "U", "NORAD_CAT_ID": 34793, "ELEMENT_SET_NO": 999, "REV_AT_EPOCH": 87208, "BSTAR": 0.00052704538, "MEAN_MOTION_DOT": 1.612e-05, "MEAN_MOTION_DDOT": 0}, "tle": {"line1": "1 34793U 93036AAW 25338.25230899  .00001612  00000+0  52705-3 0  9997", "line2": "2 34793  74.0027 266.0462 0049976  62.4541  59.8767 14.38622504872083"}}, "geometry": {"type": "Point", "coordinates": [-92.68863094814753, 6.476390000750159]}}, {"type": "Feature", "properties": {"norad_id": 34796, "name": "COSMOS 2251 DEB", "group": "cosmos-2251-debris", "lat": 12.478840764681307, "lon": 48.0124468699271, "alt_km": 800.7715395573596, "timestamp": "2025-12-04T13:52:00.836854+00:00", "meta": {"OBJECT_NAME": "COSMOS 2251 DEB", "OBJECT_ID": "1993-036AAZ", "EPOCH": "2025-12-03T19:09:30.718080", "MEAN_MOTION": 14.48608984, "ECCENTRICITY": 0.01001155, "INCLINATION": 74.031, "RA_OF_ASC_NODE": 233.1064, "ARG_OF_PERICENTER": 337.1333, "MEAN_ANOMALY": 86.4739, "EPHEMERIS_TYPE": 0, "CLASSIFICATION_TYPE": "U", "NORAD_CAT_ID": 34796, "ELEMENT_SET_NO": 999, "REV_AT_EPOCH": 87898, "BSTAR": 0.0011714627, "MEAN_MOTION_DOT": 4.668e-05, "MEAN_MOTION_DDOT": 0}, "tle": {"line1": "1 34796U 93036AAZ 25337.79827220  .00004668  00000+0  11715-2 0  9997", "line2": "2 34796  74.0310 233.1064 0100115 337.1333  86.4739 14.48608984878985"}}, "geometry": {"type": "Point", "coordinates": [48.0124468699271, 12.478840764681307]}}, {"type": "Feature", "properties": {"norad_id": 34797, "name": "COSMOS 2251 DEB", "group": "cosmos-2251-debris", "lat": 68.72846774749907, "lon": -112.388156415045, "alt_km": 772.8408325229093, "timestamp": "2025-12-04T13:52:00.836864+00:00", "meta": {"OBJECT_NAME": "COSMOS 2251 DEB", "OBJECT_ID": "1993-036ABA", "EPOCH": "2025-12-02T16:26:28.609440", "MEAN_MOTION": 14.42535201, "ECCENTRICITY": 0.00725247, "INCLINATION": 73.9763, "RA_OF_ASC_NODE": 118.7115, "ARG_OF_PERICENTER": 233.7261, "MEAN_ANOMALY": 125.7182, "EPHEMERIS_TYPE": 0, "CLASSIFICATION_TYPE": "U", "NORAD_CAT_ID": 34797, "ELEMENT_SET_NO": 999, "REV_AT_EPOCH": 87270, "BSTAR": 0.0028458232, "MEAN_MOTION_DOT": 9.728e-05, "MEAN_MOTION_DDOT": 0}, "tle": {"line1": "1 34797U 93036ABA 25336.68505335  .00009728  00000+0  28458-2 0  9999", "line2": "2 34797  73.9763 118.7115 0072524 233.7261 125.7182 14.42535201872702"}}, "geometry": {"type": "Point", "coordinates": [-112.388156415045, 68.72846774749907]}}, {"type": "Feature", "properties": {"norad_id": 34814, "name": "COSMOS 2251 DEB", "group": "cosmos-2251-debris", "lat": -71.07717855528271, "lon": -141.9950686555391, "alt_km": 740.1786038404425, "timestamp": "2025-12-04T13:52:00.836874+00:00", "meta": {"OBJECT_NAME": "COSMOS 2251 DEB", "OBJECT_ID": "1993-036ABD", "EPOCH": "2025-12-02T11:13:46.501248", "MEAN_MOTION": 14.36815971, "ECCENTRICITY": 0.00568423, "INCLINATION": 73.8957, "RA_OF_ASC_NODE": 344.4866, "ARG_OF_PERICENTER": 235.7348, "MEAN_ANOMALY": 274.6986, "EPHEMERIS_TYPE": 0, "CLASSIFICATION_TYPE": "U", "NORAD_CAT_ID": 34814, "ELEMENT_SET_NO": 999, "REV_AT_EPOCH": 87185, "BSTAR": 0.0010643945, "MEAN_MOTION_DOT": 3.176e-05, "MEAN_MOTION_DDOT": 0}, "tle": {"line1": "1 34814U 93036ABD 25336.46789932  .00003176  00000+0  10644-2 0  9991", "line2": "2 34814  73.8957 344.4866 0056842 235.7348 274.6986 14.36815971871859"}}, "geometry": {"type": "Point", "coordinates": [-141.9950686555391, -71.07717855528271]}}, {"type": "Feature", "properties": {"norad_id": 34815, "name": "COSMOS 2251 DEB", "group": "cosmos-2251-debris", "lat": -70.94614205262398, "lon": -158.095686227243, "alt_km": 614.4531791116606, "timestamp": "2025-12-04T13:52:00.836884+00:00", "meta": {"OBJECT_NAME": "COSMOS 2251 DEB", "OBJECT_ID": "1993-036ABE", "EPOCH": "2025-12-03T13:51:22.817952", "MEAN_MOTION": 14.78088557, "ECCENTRICITY": 0.00590507, "INCLINATION": 74.0463, "RA_OF_ASC_NODE": 259.7872, "ARG_OF_PERICENTER": 330.9325, "MEAN_ANOMALY": 28.8566, "EPHEMERIS_TYPE": 0, "CLASSIFICATION_TYPE": "U", "NORAD_CAT_ID": 34815, "ELEMENT_SET_NO": 999, "REV_AT_EPOCH": 88492, "BSTAR": 0.001634406, "MEAN_MOTION_DOT": 0.00012155, "MEAN_MOTION_DDOT": 0}, "tle": {"line1": "1 34815U 93036ABE 25337.57734743  .00012155  00000+0  16344-2 0  9995", "line2": "2 34815  74.0463 259.7872 0059050 330.9325  28.8566 14.78088557884920"}}, "geometry": {"type": "Point", "coordinates": [-158.095686227243, -70.94614205262398]}}, {"type": "Feature", "properties": {"norad_id": 34816, "name": "COSMOS 2251 DEB", "group": "cosmos-2251-debris", "lat": 29.788783723364492, "lon": -33.08584476917023, "alt_km": 952.0135744710806, "timestamp": "2025-12-04T13:52:00.836894+00:00", "meta": {"OBJECT_NAME": "COSMOS 2251 DEB", "OBJECT_ID": "1993-036ABF", "EPOCH": "2025-12-04T06:55:01.796736", "MEAN_MOTION": 13.5828868, "ECCENTRICITY": 0.03737099, "INCLINATION": 73.8862, "RA_OF_ASC_NODE": 156.9114, "ARG_OF_PERICENTER": 222.8428, "MEAN_ANOMALY": 314.5615, "EPHEMERIS_TYPE": 0, "CLASSIFICATION_TYPE": "U", "NORAD_CAT_ID": 34816, "ELEMENT_SET_NO": 999, "REV_AT_EPOCH": 82668, "BSTAR": 0.0017556025, "MEAN_MOTION_DOT": 1.988e-05, "MEAN_MOTION_DDOT": 0}, "tle": {"line1": "1 34816U 93036ABF 25338.28821524  .00001988  00000+0  17556-2 0  9997", "line2": "2 34816  73.8862 156.9114 0373709 222.8428 314.5615 13.58288680826686"}}, "geometry": {"type": "Point", "coordinates": [-33.08584476917023, 29.788783723364492]}}]}